{
  "type": "FeatureCollection",
  "features": [
    {
      "type": "Feature",
      "properties": {
        "norad_id": 32376,
        "name": "COSMO-SKYMED 2",
        "group": "resource",
        "lat": 82.11356453942327,
        "lon": 77.84191578656181,
        "alt_km": 613.9776248877833,
        "timestamp": "2025-12-12T05:47:28.428542+00:00",
        "meta_object_name": "COSMO-SKYMED 2",
        "meta_object_id": "2007-059A",
        "meta_epoch": "2025-12-12T00:31:34.470336",
        "meta_mean_motion": 14.82165052,
        "meta_eccentricity": 0.00015108,
        "meta_inclination": 97.8811,
        "meta_ra_of_asc_node": 167.3566,
        "meta_arg_of_pericenter": 84.9067,
        "meta_mean_anomaly": 275.2318,
        "meta_ephemeris_type": 0,
        "meta_classification_type": "U",
        "meta_norad_cat_id": 32376,
        "meta_element_set_no": 999,
        "meta_rev_at_epoch": 97427,
        "meta_bstar": 0.00012350074,
        "meta_mean_motion_dot": 9.31e-06,
        "meta_mean_motion_ddot": 0,
        "tle_line1": "1 32376U 07059A   25346.02192674  .00000931  00000+0  12350-3 0  9999",
        "tle_line2": "2 32376  97.8811 167.3566 0001510  84.9067 275.2318 14.82165052974273"
      },
      "geometry": {
        "type": "Point",
        "coordinates": [
          77.84191578656181,
          82.11356453942327
        ]
      }
    },
    {
      "type": "Feature",
      "properties": {
        "norad_id": 32382,
        "name": "RADARSAT-2",
        "group": "resource",
        "lat": 46.87345364477479,
        "lon": -179.88572240516072,
        "alt_km": 787.0933651902196,
        "timestamp": "2025-12-12T05:47:28.428553+00:00",
        "meta_object_name": "RADARSAT-2",
        "meta_object_id": "2007-061A",
        "meta_epoch": "2025-12-12T00:08:11.679936",
        "meta_mean_motion": 14.29981215,
        "meta_eccentricity": 0.00011148,
        "meta_inclination": 98.5802,
        "meta_ra_of_asc_node": 350.6061,
        "meta_arg_of_pericenter": 85.4888,
        "meta_mean_anomaly": 274.6422,
        "meta_ephemeris_type": 0,
        "meta_classification_type": "U",
        "meta_norad_cat_id": 32382,
        "meta_element_set_no": 999,
        "meta_rev_at_epoch": 93920,
        "meta_bstar": 1.4676904e-05,
        "meta_mean_motion_dot": -6e-08,
        "meta_mean_motion_ddot": 0,
        "tle_line1": "1 32382U 07061A   25346.00569074 -.00000006  00000+0  14677-4 0  9998",
        "tle_line2": "2 32382  98.5802 350.6061 0001114  85.4888 274.6422 14.29981215939203"
      },
      "geometry": {
        "type": "Point",
        "coordinates": [
          -179.88572240516072,
          46.87345364477479
        ]
      }
    },
    {
      "type": "Feature",
      "properties": {
        "norad_id": 32783,
        "name": "CARTOSAT-2A",
        "group": "resource",
        "lat": -54.64364005786245,
        "lon": -155.0490301980382,
        "alt_km": 645.2448963162406,
        "timestamp": "2025-12-12T05:47:28.428564+00:00",
        "meta_object_name": "CARTOSAT-2A",
        "meta_object_id": "2008-021A",
        "meta_epoch": "2025-12-11T23:51:30.941568",
        "meta_mean_motion": 14.78935448,
        "meta_eccentricity": 0.00119803,
        "meta_inclination": 97.7929,
        "meta_ra_of_asc_node": 35.8404,
        "meta_arg_of_pericenter": 7.2567,
        "meta_mean_anomaly": 352.8815,
        "meta_ephemeris_type": 0,
        "meta_classification_type": "U",
        "meta_norad_cat_id": 32783,
        "meta_element_set_no": 999,
        "meta_rev_at_epoch": 95113,
        "meta_bstar": 0.00020229562,
        "meta_mean_motion_dot": 1.443e-05,
        "meta_mean_motion_ddot": 0,
        "tle_line1": "1 32783U 08021A   25345.99410812  .00001443  00000+0  20230-3 0  9998",
        "tle_line2": "2 32783  97.7929  35.8404 0011980   7.2567 352.8815 14.78935448951132"
      },
      "geometry": {
        "type": "Point",
        "coordinates": [
          -155.0490301980382,
          -54.64364005786245
        ]
      }
    },
    {
      "type": "Feature",
      "properties": {
        "norad_id": 33320,
        "name": "HUANJING 1A (HJ-1A)",
        "group": "resource",
        "lat": 81.76228778095785,
        "lon": -137.16596662073462,
        "alt_km": 603.4514468800216,
        "timestamp": "2025-12-12T05:47:28.428574+00:00",
        "meta_object_name": "HUANJING 1A (HJ-1A)",
        "meta_object_id": "2008-041A",
        "meta_epoch": "2025-12-12T00:31:05.435616",
        "meta_mean_motion": 14.83392883,
        "meta_eccentricity": 0.00202184,
        "meta_inclination": 97.6546,
        "meta_ra_of_asc_node": 334.3503,
        "meta_arg_of_pericenter": 36.7759,
        "meta_mean_anomaly": 323.4838,
        "meta_ephemeris_type": 0,
        "meta_classification_type": "U",
        "meta_norad_cat_id": 33320,
        "meta_element_set_no": 999,
        "meta_rev_at_epoch": 93065,
        "meta_bstar": 0.00036800356,
        "meta_mean_motion_dot": 2.979e-05,
        "meta_mean_motion_ddot": 0,
        "tle_line1": "1 33320U 08041A   25346.02159069  .00002979  00000+0  36800-3 0  9992",
        "tle_line2": "2 33320  97.6546 334.3503 0020218  36.7759 323.4838 14.83392883930654"
      },
      "geometry": {
        "type": "Point",
        "coordinates": [
          -137.16596662073462,
          81.76228778095785
        ]
      }
    },
    {
      "type": "Feature",
      "properties": {
        "norad_id": 33321,
        "name": "HUANJING 1B (HJ-1B)",
        "group": "resource",
        "lat": -44.98245412107865,
        "lon": -14.031246460471989,
        "alt_km": 641.5330730733212,
        "timestamp": "2025-12-12T05:47:28.428585+00:00",
        "meta_object_name": "HUANJING 1B (HJ-1B)",
        "meta_object_id": "2008-041B",
        "meta_epoch": "2025-12-11T23:31:05.420640",
        "meta_mean_motion": 14.82817454,
        "meta_eccentricity": 0.00381835,
        "meta_inclination": 97.6406,
        "meta_ra_of_asc_node": 338.009,
        "meta_arg_of_pericenter": 78.0751,
        "meta_mean_anomaly": 282.4741,
        "meta_ephemeris_type": 0,
        "meta_classification_type": "U",
        "meta_norad_cat_id": 33321,
        "meta_element_set_no": 999,
        "meta_rev_at_epoch": 93066,
        "meta_bstar": 0.00024207386,
        "meta_mean_motion_dot": 1.932e-05,
        "meta_mean_motion_ddot": 0,
        "tle_line1": "1 33321U 08041B   25345.97992385  .00001932  00000+0  24207-3 0  9998",
        "tle_line2": "2 33321  97.6406 338.0090 0038183  78.0751 282.4741 14.82817454930666"
      },
      "geometry": {
        "type": "Point",
        "coordinates": [
          -14.031246460471989,
          -44.98245412107865
        ]
      }
    },
    {
      "type": "Feature",
      "properties": {
        "norad_id": 33331,
        "name": "GEOEYE 1",
        "group": "resource",
        "lat": -26.38276944685537,
        "lon": 61.59193380258288,
        "alt_km": 682.2636480995625,
        "timestamp": "2025-12-12T05:47:28.428595+00:00",
        "meta_object_name": "GEOEYE 1",
        "meta_object_id": "2008-042A",
        "meta_epoch": "2025-12-11T23:21:18.152064",
        "meta_mean_motion": 14.64811148,
        "meta_eccentricity": 0.00027353,
        "meta_inclination": 98.1253,
        "meta_ra_of_asc_node": 57.2634,
        "meta_arg_of_pericenter": 279.7509,
        "meta_mean_anomaly": 80.3385,
        "meta_ephemeris_type": 0,
        "meta_classification_type": "U",
        "meta_norad_cat_id": 33331,
        "meta_element_set_no": 999,
        "meta_rev_at_epoch": 92274,
        "meta_bstar": 0.00019225324,
        "meta_mean_motion_dot": 9.78e-06,
        "meta_mean_motion_ddot": 0,
        "tle_line1": "1 33331U 08042A   25345.97312676  .00000978  00000+0  19225-3 0  9992",
        "tle_line2": "2 33331  98.1253  57.2634 0002735 279.7509  80.3385 14.64811148922745"
      },
      "geometry": {
        "type": "Point",
        "coordinates": [
          61.59193380258288,
          -26.38276944685537
        ]
      }
    },
    {
      "type": "Feature",
      "properties": {
        "norad_id": 33396,
        "name": "THEOS",
        "group": "resource",
        "lat": -81.40258976829867,
        "lon": 132.25729433201047,
        "alt_km": 833.1929728741325,
        "timestamp": "2025-12-12T05:47:28.428606+00:00",
        "meta_object_name": "THEOS",
        "meta_object_id": "2008-049A",
        "meta_epoch": "2025-12-12T01:08:24.635040",
        "meta_mean_motion": 14.20095708,
        "meta_eccentricity": 0.00011537,
        "meta_inclination": 98.5864,
        "meta_ra_of_asc_node": 44.1569,
        "meta_arg_of_pericenter": 94.8406,
        "meta_mean_anomaly": 265.2903,
        "meta_ephemeris_type": 0,
        "meta_classification_type": "U",
        "meta_norad_cat_id": 33396,
        "meta_element_set_no": 999,
        "meta_rev_at_epoch": 89140,
        "meta_bstar": -1.1808234e-05,
        "meta_mean_motion_dot": -6.8e-07,
        "meta_mean_motion_ddot": 0,
        "tle_line1": "1 33396U 08049A   25346.04750735 -.00000068  00000+0 -11808-4 0  9993",
        "tle_line2": "2 33396  98.5864  44.1569 0001153  94.8406 265.2903 14.20095708891401"
      },
      "geometry": {
        "type": "Point",
        "coordinates": [
          132.25729433201047,
          -81.40258976829867
        ]
      }
    }
  ]
}